BEIDOU-2 IGSO-1 (C06)   
1 36828U 10036A   25339.94087611 -.00000051  00000+0  00000+0 0  9990
2 36828  54.2851 164.7095 0051236 215.8121 140.9806  1.00277976 56157
BEIDOU-2 G4 (C04)       
1 37210U 10057A   25340.24449524 -.00000105  00000+0  00000+0 0  9999
2 37210   3.1677  69.9541 0010958 189.5357  63.8885  1.00271337 55354
BEIDOU-2 IGSO-2 (C07)   
1 37256U 10068A   25337.72402813 -.00000225  00000+0  00000+0 0  9993
2 37256  47.9043 274.2613 0049233 216.1442 310.2369  1.00288710 54839
BEIDOU-2 IGSO-3 (C08)   
1 37384U 11013A   25337.61955464 -.00000199  00000+0  00000+0 0  9999
2 37384  62.1308  42.0050 0035392 186.5359 174.9093  1.00272128 53708
BEIDOU-2 IGSO-4 (C09)   
1 37763U 11038A   25335.52233751  .00000101  00000+0  00000+0 0  9995
2 37763  54.5808 167.4476 0148780 230.2031 315.0387  1.00284074 52664
BEIDOU-2 IGSO-5 (C10)   
1 37948U 11073A   25339.80282375 -.00000179  00000+0  00000+0 0  9996
2 37948  48.0339 273.9433 0110589 222.1593 320.3155  1.00291877 51199
BEIDOU-2 G5 (C05)       
1 38091U 12008A   25340.22430179  .00000063  00000+0  00000+0 0  9991
2 38091   3.0923  70.7281 0012483 226.1461 277.8607  1.00273238 50430
BEIDOU-2 M3 (C11)       
1 38250U 12018A   25339.88370985 -.00000070  00000+0  00000+0 0  9996
2 38250  55.9260 311.3880 0024428 273.8805  85.8231  1.86229708 92342
BEIDOU-2 M4 (C12)       
1 38251U 12018B   25339.27879479 -.00000069  00000+0  00000+0 0  9990
2 38251  55.8281 310.6380 0015580 277.0120  82.7935  1.86229397 92337
BEIDOU-2 M6 (C14)       
1 38775U 12050B   25340.06366605 -.00000047  00000+0  00000+0 0  9994
2 38775  56.3729  69.2891 0010959 345.8795  14.1028  1.86230698 89718
BEIDOU-2 G6 (C02)       
1 38953U 12059A   25340.15805265 -.00000169  00000+0  00000+0 0  9996
2 38953   3.9317  75.5675 0007521 289.3051 211.2727  1.00270309 47972
BEIDOU-3S M2S (C58)     
1 40748U 15037A   25338.40994534 -.00000068  00000+0  00000+0 0  9991
2 40748  55.0462 308.7497 0012400 267.6151  92.2259  1.86229056 70498
BEIDOU-3S M1S (C57)     
1 40749U 15037B   25335.95678718 -.00000060  00000+0  00000+0 0  9994
2 40749  55.0451 308.8236 0003321 355.9906   3.9975  1.86253762 70451
BEIDOU-3S IGSO-2S (C56) 
1 40938U 15053A   25337.72050941 -.00000153  00000+0  00000+0 0  9994
2 40938  49.5266 261.1136 0061108 188.6320 338.5579  1.00271480 37397
BEIDOU-2 IGSO-6 (C13)   
1 41434U 16021A   25335.66499175 -.00000155  00000+0  00000+0 0  9991
2 41434  59.9483  40.0119 0059132 231.2834 130.8807  1.00256562 35501
BEIDOU-2 G7 (C03)       
1 41586U 16037A   25340.02059850 -.00000345  00000+0  00000+0 0  9995
2 41586   1.7398  67.7245 0004371   2.0218 123.2221  1.00270310  4958
BEIDOU-3 M1 (C19)       
1 43001U 17069A   25337.14436904 -.00000049  00000+0  00000+0 0  9994
2 43001  56.5186  69.5514 0008837 303.7187  56.1997  1.86230745 54952
BEIDOU-3 M2 (C20)       
1 43002U 17069B   25340.30446848 -.00000046  00000+0  00000+0 0  9992
2 43002  56.5209  69.4828 0006287 331.4917  28.4877  1.86230660 55004
BEIDOU-3 M7 (C27)       
1 43107U 18003A   25339.51063632 -.00000071  00000+0  00000+0 0  9992
2 43107  54.5032 309.0664 0002662  69.7812 290.2304  1.86232243 53743
BEIDOU-3 M8 (C28)       
1 43108U 18003B   25339.99243337 -.00000071  00000+0  00000+0 0  9997
2 43108  54.4957 309.0324 0004766 274.7089  85.2198  1.86230755 53764
BEIDOU-3 M4 (C22)       
1 43207U 18018A   25336.13870200 -.00000045  00000+0  00000+0 0  9992
2 43207  56.4768  69.6557 0004074  15.1369 344.8773  1.86230706 53076
BEIDOU-3 M3 (C21)       
1 43208U 18018B   25337.27913997 -.00000049  00000+0  00000+0 0  9994
2 43208  56.4772  69.6218 0006282 317.5873  42.3668  1.86230862 53096
BEIDOU-3 M9 (C29)       
1 43245U 18029A   25340.18003205 -.00000069  00000+0  00000+0 0  9995
2 43245  54.3718 306.6963 0001661 275.8871  84.0770  1.86227839 52305
BEIDOU-3 M10 (C30)      
1 43246U 18029B   25339.04139838 -.00000069  00000+0  00000+0 0  9991
2 43246  54.3703 306.7635 0004027   0.0249 359.9572  1.86228856 52262
BEIDOU-2 IGSO-7 (C16)   
1 43539U 18057A   25339.94087611 -.00000053  00000+0  00000+0 0  9990
2 43539  55.1738 164.7310 0092472 235.1961 125.0638  1.00258883 27197
BEIDOU-3 M5 (C23)       
1 43581U 18062A   25339.80310942  .00000082  00000+0  00000+0 0  9995
2 43581  54.0891 188.8794 0002121 352.6439   7.4360  1.86228600 50034
BEIDOU-3 M6 (C24)       
1 43582U 18062B   25338.59232494  .00000102  00000+0  00000+0 0  9999
2 43582  54.0887 188.9098 0007706  46.0149 314.1395  1.86229600 50019
BEIDOU-3 M12 (C26)      
1 43602U 18067A   25339.06701895  .00000095  00000+0  00000+0 0  9997
2 43602  54.1831 187.6237 0009145  40.6372 319.5174  1.86227634 49501
BEIDOU-3 M11 (C25)      
1 43603U 18067B   25339.73846065  .00000084  00000+0  00000+0 0  9999
2 43603  54.1804 187.5650 0005576  36.5607 323.5589  1.86227161 49543
BEIDOU-3 M13 (C32)      
1 43622U 18072A   25337.54714747 -.00000050  00000+0  00000+0 0  9998
2 43622  56.4512  69.1249 0005673 298.6305  61.3164  1.86230692 49019
BEIDOU-3 M14 (C33)      
1 43623U 18072B   25336.33870189 -.00000046  00000+0  00000+0 0  9993
2 43623  56.4518  69.1588 0003050 335.8375  24.1509  1.86230716 48982
BEIDOU-3 M16 (C35)      
1 43647U 18078A   25338.64447137 -.00000069  00000+0  00000+0 0  9999
2 43647  54.2696 306.8042 0007017  18.5633 341.4446  1.86232090 48539
BEIDOU-3 M15 (C34)      
1 43648U 18078B   25339.31063272 -.00000069  00000+0  00000+0 0  9999
2 43648  54.2646 306.7819 0003685  17.7509 342.2442  1.86231965 48564
BEIDOU-3 G1 (C59)       
1 43683U 18085A   25340.31183566 -.00000270  00000+0  00000+0 0  9991
2 43683   2.5907 103.1424 0001898  64.9697 159.5619  1.00272704 26121
BEIDOU-3 M17 (C36)      
1 43706U 18093A   25337.59070926  .00000114  00000+0  00000+0 0  9993
2 43706  54.1727 188.9327 0006346 306.3477 234.3147  1.86228161 47892
BEIDOU-3 M18 (C37)      
1 43707U 18093B   25338.25664881  .00000106  00000+0  00000+0 0  9998
2 43707  54.1734 188.9019 0006367 351.3735   8.7081  1.86226429 47906
BEIDOU-3 IGSO-1 (C38)   
1 44204U 19023A   25323.59378135 -.00000226  00000+0  00000+0 0  9994
2 44204  58.4003  39.8168 0026966 221.2202 126.9723  1.00252177  5102
BEIDOU-2 G8 (C01)       
1 44231U 19027A   25340.24836373 -.00000240  00000+0  00000+0 0  9998
2 44231   1.6446  74.7141 0008512 254.8767 339.6701  1.00269417 24146
BEIDOU-3 IGSO-2 (C39)   
1 44337U 19035A   25335.22071368 -.00000025  00000+0  00000+0 0  9992
2 44337  55.2223 160.6035 0037606 202.2564 266.4761  1.00274502 23688
BEIDOU-3 M24 (C46)      
1 44542U 19061A   25338.86476916  .00000098  00000+0  00000+0 0  9999
2 44542  54.4001 189.2820 0009575  24.0464 336.0883  1.86229249 42179
BEIDOU-3 M23 (C45)      
1 44543U 19061B   25338.72229596  .00000100  00000+0  00000+0 0  9999
2 44543  54.3989 189.2553 0006129  23.0087 154.4182  1.86227466 42172
BEIDOU-3 IGSO-3 (C40)   
1 44709U 19073A   25324.29956875 -.00000206  00000+0  00000+0 0  9998
2 44709  55.1630 283.1590 0044538 191.5856 168.2409  1.00250097 22360
BEIDOU-3 M22 (C44)      
1 44793U 19078A   25339.24180618 -.00000069  00000+0  00000+0 0  9998
2 44793  54.1154 306.6493 0005728  22.8633 337.1445  1.86231816 41037
BEIDOU-3 M21 (C43)      
1 44794U 19078B   25339.91627144 -.00000069  00000+0  00000+0 0  9993
2 44794  54.0880 306.5908 0003960  10.7864 349.2048  1.86227538 41052
BEIDOU-3 M19 (C41)      
1 44864U 19090A   25336.93578185 -.00000049  00000+0  00000+0 0  9992
2 44864  56.3847  69.2872 0017560 284.9296  72.4940  1.86231053 40575
BEIDOU-3 M20 (C42)      
1 44865U 19090B   25337.44263735 -.00000050  00000+0  00000+0 0  9994
2 44865  56.3867  69.3045 0014713 297.7194 129.1388  1.86231029 40576
BEIDOU-3 G2 (C60)       
1 45344U 20017A   25339.65791623 -.00000129  00000+0  00000+0 0  9992
2 45344   2.4835  43.7472 0005391 266.1366  81.6514  1.00262828 21310
BEIDOU-3 G3 (C61)       
1 45807U 20040A   25340.03809856 -.00000345  00000+0  00000+0 0  9994
2 45807   1.9742  66.5538 0005129 303.6730 189.0335  1.00265272 20131
BEIDOU-3 G4 (C62)       
1 56564U 23066A   25340.24440858 -.00000102  00000+0  00000+0 0  9994
2 56564   0.8299 301.5074 0003181 236.7892 145.0454  1.00270951  9463
BEIDOU-3 M28 (C50)      
1 58654U 23207A   25337.30974998 -.00000051  00000+0  00000+0 0  9996
2 58654  55.5764  68.9209 0002031 265.1091  94.8710  1.86229561 13199
BEIDOU-3 M26 (C48)      
1 58655U 23207B   25337.10746791 -.00000050  00000+0  00000+0 0  9992
2 58655  55.5782  68.9139 0003459 250.5367 109.4290  1.86231091 13176
BEIDOU-3 M25 (C47)      
1 61186U 24168B   25340.15461454 -.00000071  00000+0  00000+0 0  9994
2 61186  54.6479 308.9479 0005472 294.8981  64.9511  1.86229727  8185
BEIDOU-3 M27 (C49)      
1 61187U 24168C   25340.02821635 -.00000071  00000+0  00000+0 0  9992
2 61187  54.6434 308.9360 0002274 331.2531  78.7916  1.86229869  5669
